OBJECT_NAME,OBJECT_ID,EPOCH,MEAN_MOTION,ECCENTRICITY,INCLINATION,RA_OF_ASC_NODE,ARG_OF_PERICENTER,MEAN_ANOMALY,EPHEMERIS_TYPE,CLASSIFICATION_TYPE,NORAD_CAT_ID,ELEMENT_SET_NO,REV_AT_EPOCH,BSTAR,MEAN_MOTION_DOT,MEAN_MOTION_DDOT
STARLINK-3657,2022-025AL,2026-07-03T19:09:56.796192,15.08832172,.00007759,53.1582,217.6897,72.8012,287.3064,0,U,51990,999,23886,.10760583E-4,-.117E-5,0
STARLINK-3652,2022-025AM,2026-07-04T08:00:03.000384,15.31673786,.00013071,53.1592,233.3239,96.1254,90.7600,0,U,51991,999,565,.4166011E-1,.1428313E-1,0
STARLINK-3643,2022-025AN,2026-07-04T08:00:03.000384,15.20789883,.00006547,53.1598,214.8797,102.5880,194.8695,0,U,51992,999,581,.4917452E-1,.119612E-1,0
STARLINK-3648,2022-025AP,2026-07-03T21:03:52.559424,15.08835519,.00009084,53.1585,237.3349,76.6810,283.4283,0,U,51993,999,23860,.38772044E-4,.329E-5,0
STARLINK-3647,2022-025AQ,2026-07-04T02:45:40.773600,15.08828346,.00011104,53.1590,216.2658,84.3515,275.7603,0,U,51994,999,23849,-.10614485E-4,-.457E-5,0
STARLINK-3636,2022-025AR,2026-07-04T08:00:03.000384,15.24938047,.00014953,53.1589,214.6786,52.0732,309.1724,0,U,51995,999,581,.41841896E-1,.1145463E-1,0
STARLINK-3538,2022-025AS,2026-07-04T08:00:03.000384,15.25170006,.00013656,53.1593,214.6084,78.0344,40.9305,0,U,51996,999,561,.3983266E-1,.1093929E-1,0
STARLINK-3589,2022-025AT,2026-07-04T08:00:03.000384,15.23086554,.0000829,53.1590,214.7201,66.8037,292.5778,0,U,51997,999,581,.44617617E-1,.1157374E-1,0
STARLINK-3618,2022-025AU,2026-07-04T08:00:03.000384,15.19501012,.0001854,53.1591,214.9728,60.1774,30.1410,0,U,51998,999,580,.45854729E-1,.106399E-1,0
STARLINK-3653,2022-025AW,2026-07-04T00:01:23.097792,15.08834057,.000112,53.1590,216.6919,86.8542,273.2578,0,U,52000,999,23848,.32497477E-4,.229E-5,0
STARLINK-3659,2022-025AX,2026-07-04T01:54:03.875328,15.08832585,.00011087,53.1586,216.4396,86.1472,273.9646,0,U,52001,999,23849,.27698666E-4,.153E-5,0
STARLINK-3668,2022-025AY,2026-07-04T01:52:41.607840,15.08833215,.00008224,53.1587,216.4715,87.6248,272.4837,0,U,52002,999,23849,.38033543E-4,.317E-5,0
YAOGAN-34 02,2022-027A,2026-07-04T06:24:42.326784,13.45460793,.00535428,63.3957,157.2266,353.7635,6.2719,0,U,52084,999,21121,.63474263E-4,-.52E-6,0
STARLINK-3712,2022-029C,2026-07-04T06:16:25.728096,15.10087313,.00016808,53.1601,285.5920,32.0845,328.0249,0,U,52090,999,23825,.71734438E-2,.119867E-2,0
STARLINK-3716,2022-029E,2026-07-04T00:02:13.077600,15.09134268,.00009897,53.1600,286.7760,81.6159,278.4945,0,U,52092,999,23821,.23237998E-2,.37192E-3,0
STARLINK-3673,2022-029F,2026-07-04T08:00:03.000384,15.33581840,.00013878,53.1590,283.0037,85.1187,71.7772,0,U,52093,999,561,.18300213E-1,.648418E-2,0
STARLINK-3714,2022-029G,2026-07-04T06:12:27.156960,15.09523330,.000099,53.1597,285.6138,72.5832,287.5268,0,U,52094,999,23825,.50002555E-2,.81737E-3,0
STARLINK-3701,2022-029H,2026-07-04T08:00:03.000384,15.30433591,.00012002,53.1590,283.2647,67.4679,356.4103,0,U,52095,999,561,.34527173E-2,.104093E-2,0
STARLINK-3717,2022-029J,2026-07-04T08:00:03.000384,15.21247573,.00015198,53.1590,274.5118,74.2587,183.4300,0,U,52096,999,581,.2285319E-2,.51729E-3,0
STARLINK-3665,2022-029L,2026-07-04T06:03:04.597920,15.08831228,.00011217,53.1603,285.6505,86.1998,273.9121,0,U,52098,999,23825,.42593554E-4,.39E-5,0
STARLINK-3702,2022-029N,2026-07-04T08:00:03.000384,15.31275528,.00011174,53.1594,283.2867,79.5278,353.4130,0,U,52100,999,581,.32535368E-2,.100623E-2,0
STARLINK-3703,2022-029P,2026-07-03T23:46:46.903296,15.08880841,.00011222,53.1597,287.0188,109.5182,250.5931,0,U,52101,999,23820,.44903997E-3,.6874E-4,0
STARLINK-3709,2022-029Q,2026-07-04T08:00:03.000384,15.23612117,.00018032,53.1594,274.5654,80.4862,44.0535,0,U,52102,999,566,.3872564E-1,.1023612E-1,0
STARLINK-3705,2022-029R,2026-07-04T08:00:03.000384,15.23660267,.00007474,53.1591,274.5316,112.7545,174.8035,0,U,52103,999,565,.34339939E-1,.899444E-2,0
STARLINK-3706,2022-029T,2026-07-04T08:00:03.000384,15.22272024,.00005448,53.1606,274.4609,70.7684,287.5544,0,U,52105,999,555,.30906298E-2,.72427E-3,0
STARLINK-3670,2022-029U,2026-07-03T16:53:54.296160,15.34394607,.00008251,53.1609,286.0204,70.1082,290.0009,0,U,52106,999,23818,.11799802E-3,.3612E-4,0
STARLINK-3658,2022-029V,2026-07-04T08:00:03.000384,15.21825048,.00009725,53.1608,274.4982,95.8150,268.5930,0,U,52107,999,560,.21372386E-2,.49169E-3,0
STARLINK-3698,2022-029W,2026-07-04T08:00:03.000384,15.23859133,.00007292,53.1602,274.4541,76.9532,270.0633,0,U,52108,999,580,.32527474E-1,.853631E-2,0
STARLINK-3687,2022-029Y,2026-07-04T08:00:03.000384,15.22839018,.00007885,53.1604,274.4894,75.2019,273.9489,0,U,52110,999,576,.35192758E-1,.89974E-2,0
STARLINK-3708,2022-029Z,2026-07-04T08:00:03.000384,15.23147106,.00011909,53.1605,274.5277,77.0167,331.8112,0,U,52111,999,581,.26270869E-2,.63051E-3,0
STARLINK-3734,2022-029AA,2026-07-04T08:00:03.000384,15.62966013,.00011748,53.2165,256.9355,63.3983,50.4915,0,U,52112,999,591,.35653287E-2,.342866E-2,0
STARLINK-3736,2022-029AB,2026-07-04T08:00:03.000384,15.24863083,.00006087,53.1591,274.1145,107.6369,195.2406,0,U,52113,999,561,.3085279E-1,.832701E-2,0
STARLINK-3737,2022-029AC,2026-07-04T08:00:03.000384,15.24116046,.00011708,53.1630,274.3462,78.3735,43.7467,0,U,52114,999,580,.18204882E-1,.478302E-2,0
STARLINK-3685,2022-029AD,2026-07-04T08:00:03.000384,15.33142359,.00011426,53.1604,273.0636,76.9923,84.8142,0,U,52115,999,566,.31473567E-2,.103236E-2,0
STARLINK-3735,2022-029AE,2026-07-04T08:00:03.000384,15.24685482,.00013805,53.1591,274.2701,100.9256,100.9688,0,U,52116,999,581,.2970248E-1,.80524E-2,0
STARLINK-3738,2022-029AF,2026-07-04T08:00:03.000384,15.23701150,.000055,53.1586,274.3372,106.6072,161.3911,0,U,52117,999,576,.28398357E-2,.69378E-3,0
STARLINK-3743,2022-029AG,2026-07-04T08:00:03.000384,15.23541120,.00017118,53.1599,274.4727,76.3677,60.7850,0,U,52118,999,556,.3363577E-1,.876056E-2,0
STARLINK-3558,2022-029AH,2026-07-04T08:00:03.000384,15.31170632,.00015753,53.1605,273.2424,81.0154,70.0542,0,U,52119,999,581,.19680525E-1,.646657E-2,0
STARLINK-3534,2022-029AJ,2026-07-04T08:00:03.000384,15.34393684,.00012903,53.1593,272.9258,79.2183,170.8788,0,U,52120,999,566,.35139024E-3,.11512E-3,0
STARLINK-3678,2022-029AK,2026-07-04T05:12:43.759296,15.08832501,.00013109,53.1605,265.8094,82.1923,277.9217,0,U,52121,999,23851,.72865337E-4,.872E-5,0
STARLINK-3726,2022-029AL,2026-07-04T08:00:03.000384,15.23044038,.0001341,53.1590,274.4471,97.4826,134.8390,0,U,52122,999,581,.25188468E-2,.60231E-3,0
STARLINK-3725,2022-029AM,2026-07-04T04:37:00.347232,15.08825231,.0001165,53.1584,265.7421,100.6700,259.4423,0,U,52123,999,23852,.19800577E-3,.2864E-4,0
STARLINK-3727,2022-029AP,2026-07-03T22:35:17.357568,15.08833985,.00013003,53.1597,267.0471,89.6627,270.4513,0,U,52125,999,23848,.49768588E-4,.504E-5,0
STARLINK-3732,2022-029AQ,2026-07-03T22:45:51.052320,15.08853572,.0001317,53.1602,267.0140,79.2924,280.8216,0,U,52126,999,23847,.10973375E-3,.146E-4,0
STARLINK-3715,2022-029AR,2026-07-03T22:29:59.377920,15.08832218,.00010108,53.1597,267.0658,83.6871,276.4236,0,U,52127,999,23847,.25557991E-4,.119E-5,0
STARLINK-3661,2022-029AT,2026-07-04T06:16:19.226496,15.08831405,.00011919,53.1579,265.6098,103.1521,256.9604,0,U,52129,999,23853,.8927309E-5,-.146E-5,0
STARLINK-3711,2022-029AV,2026-07-03T14:54:52.549920,15.19351575,.00007168,53.2136,260.5834,286.2314,73.8604,0,U,52131,999,23855,.56983865E-3,.11895E-3,0
STARLINK-3718,2022-029AW,2026-07-03T11:16:59.604384,15.08829213,.00009929,53.1590,269.1669,90.2299,269.8806,0,U,52132,999,23841,.27666043E-4,.152E-5,0
STARLINK-3707,2022-029AX,2026-07-04T06:00:25.178688,15.08832983,.00011401,53.1599,265.6575,75.2906,284.8212,0,U,52133,999,23853,.8028864E-5,-.16E-5,0
STARLINK-3721,2022-029AY,2026-07-04T06:05:42.923328,15.08831810,.00013019,53.1595,265.6437,89.2790,270.8350,0,U,52134,999,23853,.12627221E-3,.1722E-4,0
STARLINK-3720,2022-029BA,2026-07-04T05:55:07.167936,15.08826250,.00009523,53.1582,265.6756,82.6250,277.4850,0,U,52136,999,23853,.63242707E-4,.718E-5,0
STARLINK-3733,2022-029BB,2026-07-04T05:39:13.056192,15.08836919,.00009674,53.1592,265.7261,73.2706,286.8392,0,U,52137,999,23853,.14223351E-4,-.61E-6,0
STARLINK-3723,2022-029BC,2026-07-03T15:31:21.108576,15.08832099,.00010483,53.1602,268.3744,85.8487,274.2624,0,U,52138,999,23844,-.10812577E-4,-.46E-5,0
STARLINK-3730,2022-029BD,2026-07-04T08:00:03.000384,15.23803320,.0000973,53.1589,274.5591,102.8552,149.7360,0,U,52139,999,565,.32974723E-1,.864744E-2,0
STARLINK-3682,2022-029BE,2026-07-04T05:33:55.035936,15.08841572,.00010891,53.1584,265.7412,88.7444,271.3672,0,U,52140,999,23853,.42957814E-4,.396E-5,0
MERIDIAN 10,2022-030A,2026-07-03T22:01:46.168608,2.00611450,.67884093,62.6796,138.9798,272.8495,17.6318,0,U,52145,999,3136,0,.192E-5,0
TK-2,2022-031A,2026-07-04T07:13:22.200096,15.03643735,.00163807,97.8301,21.6407,69.6529,290.6455,0,U,52150,999,23303,.33372703E-3,.4517E-4,0
PUJIANG 2 (PJ-2),2022-031B,2026-07-04T07:34:28.824960,14.94332484,.00125009,97.8608,10.8741,140.8905,219.3220,0,U,52151,999,23235,.261815E-4,.223E-5,0
TIANPING 2A,2022-032A,2026-07-04T06:07:36.149664,14.97256823,.0012166,97.5844,222.4676,117.1016,243.1449,0,U,52153,999,23239,.19998267E-3,.2263E-4,0
TIANPING 2B,2022-032C,2026-07-04T06:53:53.566656,15.01703789,.00236757,97.5776,230.1506,108.3560,252.0242,0,U,52155,999,23284,.2137338E-3,.2735E-4,0
TIANPING 2C,2022-032D,2026-07-04T07:13:07.608864,15.11389243,.00079928,97.5811,237.5140,98.5300,261.6836,0,U,52156,999,23343,.34454753E-3,.5756E-4,0
OMNI-L1,2022-033A,2026-07-04T04:25:31.201824,14.82814312,.00043966,97.8393,264.0318,215.2937,144.7986,0,U,52157,999,22997,.29935334E-3,.237E-4,0
GNOMES-3,2022-033B,2026-07-03T22:44:00.612384,14.85146583,.00093904,97.8228,260.9565,267.3126,92.7015,0,U,52158,999,22982,.26745148E-3,.2237E-4,0
ENMAP,2022-033C,2026-07-04T06:15:42.775200,14.74934044,.00014203,97.9794,267.2687,78.1205,282.0163,0,U,52159,999,22917,.85501103E-4,.524E-5,0
